*******************************************************************************
Ephemeris / WWW_USER Tue Mar 11 05:30:42 2025 Pasadena, USA      / Horizons    
*******************************************************************************
Target body name: (2018 RY7)                      {source: JPL#20}
Center body name: Earth (399)                     {source: DE441}
Center-site name: Gemini South Obs., Cerro Pachon
*******************************************************************************
Start time      : A.D. 2018-Aug-27 22:33:00.0000 UT      
Stop  time      : A.D. 2018-Aug-28 10:54:00.0000 UT      
Step-size       : 1 minutes
*******************************************************************************
Target pole/equ : undefined
Target radii    : undefined                                                    
Center geodetic : 289.2634, -30.2406227, 2.71233  {E-lon(deg),Lat(deg),Alt(km)}
Center cylindric: 289.2634,5517.21435,-3194.81213 {E-lon(deg),Dxy(km),Dz(km)}
Center pole/equ : ITRF93                          {East-longitude positive}
Center radii    : 6378.137, 6378.137, 6356.752 km {Equator_a, b, pole_c}       
Target primary  : Sun
Vis. interferer : MOON (R_eq= 1737.400) km        {source: DE441}
Rel. light bend : Sun                             {source: DE441}
Rel. lght bnd GM: 1.3271E+11 km^3/s^2                                          
Small-body perts: Yes                             {source: SB441-N16}
Atmos refraction: NO (AIRLESS)
RA format       : HMS
Time format     : CAL 
Calendar mode   : Mixed Julian/Gregorian
RTS-only print  : NO       
EOP file        : eop.250310.p250606                                           
EOP coverage    : DATA-BASED 1962-JAN-20 TO 2025-MAR-10. PREDICTS-> 2025-JUN-05
Units conversion: 1 au= 149597870.700 km, c= 299792.458 km/s, 1 day= 86400.0 s 
Table cut-offs 1: Elevation (-90.0deg=NO ),Airmass (>38.000=NO), Daylight (YES)
Table cut-offs 2: Solar elongation (  0.0,180.0=NO ),Local Hour Angle( 0.0=NO )
Table cut-offs 3: RA/DEC angular rate (     0.0=NO )                           
*******************************************************************************
Initial IAU76/J2000 heliocentric ecliptic osculating elements (au, days, deg.):
  EPOCH=  2458422.5 ! 2018-Oct-31.00 (TDB)         Residual RMS= .22459        
   EC= .1470549687381346   QR= .8667733479166969   TP= 2458516.8896767548      
   OM= 2.838668085760325   W=  136.9006026425241   IN= 13.35135890147074       
  Equivalent ICRF heliocentric cartesian coordinates (au, au/d):
   X= 8.791791513870114E-01  Y= 4.508422091141234E-01  Z= 3.244113040133835E-01
  VX=-1.085418916943652E-02 VY= 1.006005810562689E-02 VZ= 7.673980932675997E-03
Asteroid physical parameters (km, seconds, rotational period in hours):        
   GM= n.a.                RAD= n.a.               ROTPER= n.a.                
   H= 24.4                 G= .150                 B-V= n.a.                   
                           ALBEDO= n.a.            STYP= n.a.                  
*******************************************************************************
 Date__(UT)__HR:MN     R.A._________(ICRF)_________DEC
******************************************************
$$SOE
 2018-Aug-28 04:42  m  01 59 20.096485 -17 56 44.02162
 2018-Aug-28 04:43  m  01 59 20.052027 -17 56 43.34328
 2018-Aug-28 04:44  m  01 59 20.007528 -17 56 42.66480
 2018-Aug-28 04:45  m  01 59 19.962985 -17 56 41.98617
 2018-Aug-28 04:46  m  01 59 19.918401 -17 56 41.30739
 2018-Aug-28 04:47  m  01 59 19.873774 -17 56 40.62847
 2018-Aug-28 04:48  m  01 59 19.829106 -17 56 39.94939
 2018-Aug-28 04:49  m  01 59 19.784395 -17 56 39.27017
 2018-Aug-28 04:50  m  01 59 19.739643 -17 56 38.59079
 2018-Aug-28 04:51  m  01 59 19.694849 -17 56 37.91126
 2018-Aug-28 04:52  m  01 59 19.650014 -17 56 37.23158
 2018-Aug-28 04:53  m  01 59 19.605138 -17 56 36.55175
 2018-Aug-28 04:54  m  01 59 19.560220 -17 56 35.87176
 2018-Aug-28 04:55  m  01 59 19.515261 -17 56 35.19162
 2018-Aug-28 04:56  m  01 59 19.470261 -17 56 34.51132
 2018-Aug-28 04:57  m  01 59 19.425221 -17 56 33.83087
 2018-Aug-28 04:58  m  01 59 19.380140 -17 56 33.15026
 2018-Aug-28 04:59  m  01 59 19.335018 -17 56 32.46950
 2018-Aug-28 05:00  m  01 59 19.289856 -17 56 31.78857
 2018-Aug-28 05:01  m  01 59 19.244653 -17 56 31.10749
 2018-Aug-28 05:02  m  01 59 19.199411 -17 56 30.42625
 2018-Aug-28 05:03  m  01 59 19.154128 -17 56 29.74485
 2018-Aug-28 05:04  m  01 59 19.108806 -17 56 29.06328
 2018-Aug-28 05:05  m  01 59 19.063443 -17 56 28.38156
 2018-Aug-28 05:06  m  01 59 19.018042 -17 56 27.69967
 2018-Aug-28 05:07  m  01 59 18.972600 -17 56 27.01762
 2018-Aug-28 05:08  m  01 59 18.927120 -17 56 26.33541
 2018-Aug-28 05:09  m  01 59 18.881600 -17 56 25.65303
 2018-Aug-28 05:10  m  01 59 18.836042 -17 56 24.97049
 2018-Aug-28 05:11  m  01 59 18.790444 -17 56 24.28778
 2018-Aug-28 05:12  m  01 59 18.744808 -17 56 23.60490
 2018-Aug-28 05:13  m  01 59 18.699133 -17 56 22.92186
 2018-Aug-28 05:14  m  01 59 18.653419 -17 56 22.23865
 2018-Aug-28 05:15  m  01 59 18.607668 -17 56 21.55528
 2018-Aug-28 05:16  m  01 59 18.561878 -17 56 20.87173
 2018-Aug-28 05:17  m  01 59 18.516050 -17 56 20.18801
 2018-Aug-28 05:18  m  01 59 18.470184 -17 56 19.50413
 2018-Aug-28 05:19  m  01 59 18.424281 -17 56 18.82007
 2018-Aug-28 05:20  m  01 59 18.378340 -17 56 18.13584
 2018-Aug-28 05:21  m  01 59 18.332362 -17 56 17.45144
 2018-Aug-28 05:22  m  01 59 18.286346 -17 56 16.76686
 2018-Aug-28 05:23  m  01 59 18.240293 -17 56 16.08212
 2018-Aug-28 05:24  m  01 59 18.194203 -17 56 15.39719
 2018-Aug-28 05:25  m  01 59 18.148077 -17 56 14.71210
 2018-Aug-28 05:26  m  01 59 18.101913 -17 56 14.02683
 2018-Aug-28 05:27  m  01 59 18.055714 -17 56 13.34138
 2018-Aug-28 05:28  m  01 59 18.009478 -17 56 12.65575
 2018-Aug-28 05:29  m  01 59 17.963205 -17 56 11.96995
 2018-Aug-28 05:30  m  01 59 17.916897 -17 56 11.28397
 2018-Aug-28 05:31  m  01 59 17.870552 -17 56 10.59781
 2018-Aug-28 05:32  m  01 59 17.824172 -17 56 09.91147
 2018-Aug-28 05:33  m  01 59 17.777757 -17 56 09.22495
 2018-Aug-28 05:34  m  01 59 17.731306 -17 56 08.53825
 2018-Aug-28 05:35  m  01 59 17.684819 -17 56 07.85137
 2018-Aug-28 05:36  m  01 59 17.638298 -17 56 07.16431
 2018-Aug-28 05:37  m  01 59 17.591742 -17 56 06.47707
 2018-Aug-28 05:38  m  01 59 17.545150 -17 56 05.78964
 2018-Aug-28 05:39  m  01 59 17.498525 -17 56 05.10203
 2018-Aug-28 05:40  m  01 59 17.451864 -17 56 04.41423
 2018-Aug-28 05:41  m  01 59 17.405170 -17 56 03.72625
 2018-Aug-28 05:42  m  01 59 17.358441 -17 56 03.03809
 2018-Aug-28 05:43  m  01 59 17.311678 -17 56 02.34974
 2018-Aug-28 05:44  m  01 59 17.264882 -17 56 01.66120
 2018-Aug-28 05:45  m  01 59 17.218051 -17 56 00.97248
 2018-Aug-28 05:46  m  01 59 17.171188 -17 56 00.28356
 2018-Aug-28 05:47  m  01 59 17.124291 -17 55 59.59446
 2018-Aug-28 05:48  m  01 59 17.077360 -17 55 58.90517
 2018-Aug-28 05:49  m  01 59 17.030397 -17 55 58.21570
 2018-Aug-28 05:50  m  01 59 16.983401 -17 55 57.52603
 2018-Aug-28 05:51  m  01 59 16.936372 -17 55 56.83617
 2018-Aug-28 05:52  m  01 59 16.889311 -17 55 56.14612
 2018-Aug-28 05:53  m  01 59 16.842218 -17 55 55.45588
 2018-Aug-28 05:54  m  01 59 16.795092 -17 55 54.76544
 2018-Aug-28 05:55  m  01 59 16.747934 -17 55 54.07482
 2018-Aug-28 05:56  m  01 59 16.700745 -17 55 53.38400
 2018-Aug-28 05:57  m  01 59 16.653523 -17 55 52.69298
 2018-Aug-28 05:58  m  01 59 16.606271 -17 55 52.00178
 2018-Aug-28 05:59  m  01 59 16.558987 -17 55 51.31037
 2018-Aug-28 06:00  m  01 59 16.511672 -17 55 50.61878
 2018-Aug-28 06:01  m  01 59 16.464326 -17 55 49.92698
 2018-Aug-28 06:02  m  01 59 16.416949 -17 55 49.23499
 2018-Aug-28 06:03  m  01 59 16.369541 -17 55 48.54280
 2018-Aug-28 06:04  m  01 59 16.322104 -17 55 47.85042
 2018-Aug-28 06:05  m  01 59 16.274635 -17 55 47.15784
 2018-Aug-28 06:06  m  01 59 16.227137 -17 55 46.46506
 2018-Aug-28 06:07  m  01 59 16.179609 -17 55 45.77208
 2018-Aug-28 06:08  m  01 59 16.132051 -17 55 45.07890
 2018-Aug-28 06:09  m  01 59 16.084464 -17 55 44.38552
 2018-Aug-28 06:10  m  01 59 16.036847 -17 55 43.69194
 2018-Aug-28 06:11  m  01 59 15.989201 -17 55 42.99815
 2018-Aug-28 06:12  m  01 59 15.941526 -17 55 42.30417
 2018-Aug-28 06:13  m  01 59 15.893822 -17 55 41.60999
 2018-Aug-28 06:14  m  01 59 15.846089 -17 55 40.91560
 2018-Aug-28 06:15  m  01 59 15.798328 -17 55 40.22101
 2018-Aug-28 06:16  m  01 59 15.750539 -17 55 39.52622
 2018-Aug-28 06:17  m  01 59 15.702721 -17 55 38.83122
 2018-Aug-28 06:18  m  01 59 15.654876 -17 55 38.13602
 2018-Aug-28 06:19  m  01 59 15.607003 -17 55 37.44061
 2018-Aug-28 06:20  m  01 59 15.559102 -17 55 36.74500
 2018-Aug-28 06:21  m  01 59 15.511174 -17 55 36.04918
 2018-Aug-28 06:22  m  01 59 15.463218 -17 55 35.35315
 2018-Aug-28 06:23  m  01 59 15.415236 -17 55 34.65692
 2018-Aug-28 06:24  m  01 59 15.367226 -17 55 33.96048
 2018-Aug-28 06:25  m  01 59 15.319190 -17 55 33.26384
 2018-Aug-28 06:26  m  01 59 15.271128 -17 55 32.56698
 2018-Aug-28 06:27  m  01 59 15.223039 -17 55 31.86992
 2018-Aug-28 06:28  m  01 59 15.174924 -17 55 31.17265
 2018-Aug-28 06:29  m  01 59 15.126784 -17 55 30.47517
 2018-Aug-28 06:30  m  01 59 15.078617 -17 55 29.77748
 2018-Aug-28 06:31  m  01 59 15.030425 -17 55 29.07958
 2018-Aug-28 06:32  m  01 59 14.982208 -17 55 28.38147
 2018-Aug-28 06:33  m  01 59 14.933965 -17 55 27.68315
 2018-Aug-28 06:34  m  01 59 14.885697 -17 55 26.98461
 2018-Aug-28 06:35  m  01 59 14.837405 -17 55 26.28587
 2018-Aug-28 06:36  m  01 59 14.789088 -17 55 25.58691
 2018-Aug-28 06:37  m  01 59 14.740747 -17 55 24.88774
 2018-Aug-28 06:38  m  01 59 14.692381 -17 55 24.18836
 2018-Aug-28 06:39  m  01 59 14.643992 -17 55 23.48876
 2018-Aug-28 06:40  m  01 59 14.595578 -17 55 22.78895
 2018-Aug-28 06:41  m  01 59 14.547141 -17 55 22.08892
 2018-Aug-28 06:42  m  01 59 14.498680 -17 55 21.38868
 2018-Aug-28 06:43  m  01 59 14.450197 -17 55 20.68823
 2018-Aug-28 06:44  m  01 59 14.401690 -17 55 19.98756
